{
  "type": "FeatureCollection",
  "features": [
    {
      "type": "Feature",
      "properties": {
        "norad_id": 15362,
        "name": "NOVA 3",
        "group": "nnss",
        "lat": -82.06686989408641,
        "lon": -100.32584348895476,
        "alt_km": 1171.046453429386,
        "timestamp": "2025-12-14T05:42:18.728381+00:00",
        "meta_object_name": "NOVA 3",
        "meta_object_id": "1984-110A",
        "meta_epoch": "2025-12-13T16:33:38.050272",
        "meta_mean_motion": 13.23044642,
        "meta_eccentricity": 0.00304347,
        "meta_inclination": 90.1223,
        "meta_ra_of_asc_node": 80.5459,
        "meta_arg_of_pericenter": 329.2051,
        "meta_mean_anomaly": 206.0328,
        "meta_ephemeris_type": 0,
        "meta_classification_type": "U",
        "meta_norad_cat_id": 15362,
        "meta_element_set_no": 999,
        "meta_rev_at_epoch": 98711,
        "meta_bstar": 0.00013777758,
        "meta_mean_motion_dot": 6.6e-07,
        "meta_mean_motion_ddot": 0,
        "tle_line1": "1 15362U 84110A   25347.69002373  .00000066  00000+0  13778-3 0  9992",
        "tle_line2": "2 15362  90.1223  80.5459 0030434 329.2051 206.0328 13.23044642987119"
      },
      "geometry": {
        "type": "Point",
        "coordinates": [
          -100.32584348895476,
          -82.06686989408641
        ]
      }
    },
    {
      "type": "Feature",
      "properties": {
        "norad_id": 15935,
        "name": "OSCAR 30",
        "group": "nnss",
        "lat": 52.38674659126993,
        "lon": 99.65686010702122,
        "alt_km": 1005.6515309480537,
        "timestamp": "2025-12-14T05:42:18.728392+00:00",
        "meta_object_name": "OSCAR 30",
        "meta_object_id": "1985-066A",
        "meta_epoch": "2025-12-13T13:19:23.675232",
        "meta_mean_motion": 13.36078442,
        "meta_eccentricity": 0.01693925,
        "meta_inclination": 90.1652,
        "meta_ra_of_asc_node": 99.8603,
        "meta_arg_of_pericenter": 81.6317,
        "meta_mean_anomaly": 290.4885,
        "meta_ephemeris_type": 0,
        "meta_classification_type": "U",
        "meta_norad_cat_id": 15935,
        "meta_element_set_no": 999,
        "meta_rev_at_epoch": 96464,
        "meta_bstar": 0.00017522554,
        "meta_mean_motion_dot": 1.08e-06,
        "meta_mean_motion_ddot": 0,
        "tle_line1": "1 15935U 85066A   25347.55513513  .00000108  00000+0  17523-3 0  9996",
        "tle_line2": "2 15935  90.1652  99.8603 0169392  81.6317 290.4885 13.36078442964642"
      },
      "geometry": {
        "type": "Point",
        "coordinates": [
          99.65686010702122,
          52.38674659126993
        ]
      }
    },
    {
      "type": "Feature",
      "properties": {
        "norad_id": 15936,
        "name": "OSCAR 24",
        "group": "nnss",
        "lat": 50.706283356373845,
        "lon": -87.44934887550538,
        "alt_km": 1025.4139873027752,
        "timestamp": "2025-12-14T05:42:18.728403+00:00",
        "meta_object_name": "OSCAR 24",
        "meta_object_id": "1985-066B",
        "meta_epoch": "2025-12-13T17:04:02.368992",
        "meta_mean_motion": 13.3593593,
        "meta_eccentricity": 0.0170463,
        "meta_inclination": 90.179,
        "meta_ra_of_asc_node": 92.3225,
        "meta_arg_of_pericenter": 87.6279,
        "meta_mean_anomaly": 29.2531,
        "meta_ephemeris_type": 0,
        "meta_classification_type": "U",
        "meta_norad_cat_id": 15936,
        "meta_element_set_no": 999,
        "meta_rev_at_epoch": 96656,
        "meta_bstar": 0.00015401786,
        "meta_mean_motion_dot": 9.6e-07,
        "meta_mean_motion_ddot": 0,
        "tle_line1": "1 15936U 85066B   25347.71113853  .00000096  00000+0  15402-3 0  9998",
        "tle_line2": "2 15936  90.1790  92.3225 0170463  87.6279  29.2531 13.35935930966560"
      },
      "geometry": {
        "type": "Point",
        "coordinates": [
          -87.44934887550538,
          50.706283356373845
        ]
      }
    },
    {
      "type": "Feature",
      "properties": {
        "norad_id": 17070,
        "name": "POLAR BEAR",
        "group": "nnss",
        "lat": 3.81248923750147,
        "lon": 3.6881938478782907,
        "alt_km": 968.6385295579903,
        "timestamp": "2025-12-14T05:42:18.728413+00:00",
        "meta_object_name": "POLAR BEAR",
        "meta_object_id": "1986-088A",
        "meta_epoch": "2025-12-13T15:14:01.606848",
        "meta_mean_motion": 13.75250909,
        "meta_eccentricity": 0.00410266,
        "meta_inclination": 89.6173,
        "meta_ra_of_asc_node": 183.738,
        "meta_arg_of_pericenter": 116.6417,
        "meta_mean_anomaly": 315.5624,
        "meta_ephemeris_type": 0,
        "meta_classification_type": "U",
        "meta_norad_cat_id": 17070,
        "meta_element_set_no": 999,
        "meta_rev_at_epoch": 95991,
        "meta_bstar": 0.00013726016,
        "meta_mean_motion_dot": 1.44e-06,
        "meta_mean_motion_ddot": 0,
        "tle_line1": "1 17070U 86088A   25347.63474082  .00000144  00000+0  13726-3 0  9990",
        "tle_line2": "2 17070  89.6173 183.7380 0041026 116.6417 315.5624 13.75250909959910"
      },
      "geometry": {
        "type": "Point",
        "coordinates": [
          3.6881938478782907,
          3.81248923750147
        ]
      }
    },
    {
      "type": "Feature",
      "properties": {
        "norad_id": 18361,
        "name": "OSCAR 27",
        "group": "nnss",
        "lat": -89.2849434810981,
        "lon": 110.91230693411924,
        "alt_km": 1049.770287970976,
        "timestamp": "2025-12-14T05:42:18.728424+00:00",
        "meta_object_name": "OSCAR 27",
        "meta_object_id": "1987-080A",
        "meta_epoch": "2025-12-13T15:51:54.969696",
        "meta_mean_motion": 13.449069,
        "meta_eccentricity": 0.01029824,
        "meta_inclination": 90.3743,
        "meta_ra_of_asc_node": 79.3069,
        "meta_arg_of_pericenter": 221.1462,
        "meta_mean_anomaly": 138.189,
        "meta_ephemeris_type": 0,
        "meta_classification_type": "U",
        "meta_norad_cat_id": 18361,
        "meta_element_set_no": 999,
        "meta_rev_at_epoch": 87569,
        "meta_bstar": 0.00020145558,
        "meta_mean_motion_dot": 1.3e-06,
        "meta_mean_motion_ddot": 0,
        "tle_line1": "1 18361U 87080A   25347.66105289  .00000130  00000+0  20146-3 0  9999",
        "tle_line2": "2 18361  90.3743  79.3069 0102982 221.1462 138.1890 13.44906900875692"
      },
      "geometry": {
        "type": "Point",
        "coordinates": [
          110.91230693411924,
          -89.2849434810981
        ]
      }
    },
    {
      "type": "Feature",
      "properties": {
        "norad_id": 18362,
        "name": "OSCAR 29",
        "group": "nnss",
        "lat": -79.87543450291061,
        "lon": 81.8908005154024,
        "alt_km": 1038.1206424914335,
        "timestamp": "2025-12-14T05:42:18.728435+00:00",
        "meta_object_name": "OSCAR 29",
        "meta_object_id": "1987-080B",
        "meta_epoch": "2025-12-13T16:40:20.604288",
        "meta_mean_motion": 13.44448562,
        "meta_eccentricity": 0.01039726,
        "meta_inclination": 90.3753,
        "meta_ra_of_asc_node": 79.767,
        "meta_arg_of_pericenter": 244.3921,
        "meta_mean_anomaly": 288.2929,
        "meta_ephemeris_type": 0,
        "meta_classification_type": "U",
        "meta_norad_cat_id": 18362,
        "meta_element_set_no": 999,
        "meta_rev_at_epoch": 87522,
        "meta_bstar": 0.00017478508,
        "meta_mean_motion_dot": 1.12e-06,
        "meta_mean_motion_ddot": 0,
        "tle_line1": "1 18362U 87080B   25347.69468292  .00000112  00000+0  17479-3 0  9994",
        "tle_line2": "2 18362  90.3753  79.7670 0103972 244.3921 288.2929 13.44448562875227"
      },
      "geometry": {
        "type": "Point",
        "coordinates": [
          81.8908005154024,
          -79.87543450291061
        ]
      }
    },
    {
      "type": "Feature",
      "properties": {
        "norad_id": 19070,
        "name": "OSCAR 23",
        "group": "nnss",
        "lat": -33.9536006632242,
        "lon": 16.655651504512825,
        "alt_km": 1284.837427516536,
        "timestamp": "2025-12-14T05:42:18.728445+00:00",
        "meta_object_name": "OSCAR 23",
        "meta_object_id": "1988-033A",
        "meta_epoch": "2025-12-13T16:01:05.914848",
        "meta_mean_motion": 13.27787249,
        "meta_eccentricity": 0.01896017,
        "meta_inclination": 90.3213,
        "meta_ra_of_asc_node": 16.4214,
        "meta_arg_of_pericenter": 177.3446,
        "meta_mean_anomaly": 303.3074,
        "meta_ephemeris_type": 0,
        "meta_classification_type": "U",
        "meta_norad_cat_id": 19070,
        "meta_element_set_no": 999,
        "meta_rev_at_epoch": 82265,
        "meta_bstar": 0.00017212872,
        "meta_mean_motion_dot": 9.4e-07,
        "meta_mean_motion_ddot": 0,
        "tle_line1": "1 19070U 88033A   25347.66742957  .00000094  00000+0  17213-3 0  9995",
        "tle_line2": "2 19070  90.3213  16.4214 0189601 177.3446 303.3074 13.27787249822655"
      },
      "geometry": {
        "type": "Point",
        "coordinates": [
          16.655651504512825,
          -33.9536006632242
        ]
      }
    }
  ]
}